start=new Date('2022-08-23T00:00:00.000Z').valueOf();
sats=[{"MEAN_ANOMALY":"136.5861","DECAY_DATE":null,"BSTAR":"0.00002000200000","TIME_SYSTEM":"UTC","REF_FRAME":"TEME","OBJECT_ID":"2022-076AE","EPHEMERIS_TYPE":"0","ARG_OF_PERICENTER":"23.5025","SEMIMAJOR_AXIS":"6727.788","LAUNCH_DATE":"2022-07-07","TLE_LINE1":"1 53014U 22076AE  22234.91667824  .00002191  00000-0  20002-4 0  9997","NORAD_CAT_ID":"53014","SITE":"AFETR","TLE_LINE2":"2 53014  53.2162 150.1120 0002175  23.5025 136.5861 15.73237472  1301","CLASSIFICATION_TYPE":"U","MEAN_ELEMENT_THEORY":"SGP4","MEAN_MOTION_DOT":"0.00002191","ELEMENT_SET_NO":"999","APOAPSIS":"351.117","RA_OF_ASC_NODE":"150.1120","MEAN_MOTION_DDOT":"0.0000000000000","OBJECT_TYPE":"PAYLOAD","GP_ID":"210779701","MEAN_MOTION":"15.73237472","CENTER_NAME":"EARTH","PERIAPSIS":"348.190","FILE":"3544179","INCLINATION":"53.2162","EPOCH":"2022-08-22T22:00:00.999936","COUNTRY_CODE":"US","REV_AT_EPOCH":"130","ECCENTRICITY":"0.00021750","RCS_SIZE":"LARGE","PERIOD":"91.531","OBJECT_NAME":"STARLINK-4183"},{"MEAN_ELEMENT_THEORY":"SGP4","CLASSIFICATION_TYPE":"U","TLE_LINE2":"2 53015  53.2159 150.1039 0002380  29.6381 134.6177 15.73267488  7795","ARG_OF_PERICENTER":"29.6381","TLE_LINE1":"1 53015U 22076AF  22234.91667824 -.00010477  00000-0 -70091-4 0  9999","SEMIMAJOR_AXIS":"6727.703","LAUNCH_DATE":"2022-07-07","SITE":"AFETR","NORAD_CAT_ID":"53015","MEAN_ANOMALY":"134.6177","DECAY_DATE":null,"BSTAR":"-0.00007009100000","TIME_SYSTEM":"UTC","OBJECT_ID":"2022-076AF","REF_FRAME":"TEME","EPHEMERIS_TYPE":"0","RCS_SIZE":"LARGE","ECCENTRICITY":"0.00023800","PERIOD":"91.529","OBJECT_NAME":"STARLINK-4262","INCLINATION":"53.2159","EPOCH":"2022-08-22T22:00:00.999936","REV_AT_EPOCH":"779","COUNTRY_CODE":"US","GP_ID":"210753006","OBJECT_TYPE":"PAYLOAD","MEAN_MOTION":"15.73267488","CENTER_NAME":"EARTH","PERIAPSIS":"347.967","FILE":"3544072","ELEMENT_SET_NO":"999","APOAPSIS":"351.169","MEAN_MOTION_DOT":"-0.00010477","MEAN_MOTION_DDOT":"0.0000000000000","RA_OF_ASC_NODE":"150.1039"},{"MEAN_ELEMENT_THEORY":"SGP4","CLASSIFICATION_TYPE":"U","TLE_LINE2":"2 53016  53.2171 150.1064 0002043  34.4001 127.5023 15.73285448  1305","SEMIMAJOR_AXIS":"6727.652","LAUNCH_DATE":"2022-07-07","TLE_LINE1":"1 53016U 22076AG  22234.91667824 -.00097206  00000-0 -69357-3 0  9997","ARG_OF_PERICENTER":"34.4001","NORAD_CAT_ID":"53016","SITE":"AFETR","TIME_SYSTEM":"UTC","DECAY_DATE":null,"BSTAR":"-0.00069357000000","MEAN_ANOMALY":"127.5023","EPHEMERIS_TYPE":"0","REF_FRAME":"TEME","OBJECT_ID":"2022-076AG","PERIOD":"91.528","ECCENTRICITY":"0.00020430","RCS_SIZE":"LARGE","OBJECT_NAME":"STARLINK-4283","EPOCH":"2022-08-22T22:00:00.999936","INCLINATION":"53.2171","COUNTRY_CODE":"US","REV_AT_EPOCH":"130","MEAN_MOTION":"15.73285448","OBJECT_TYPE":"PAYLOAD","GP_ID":"210780257","FILE":"3544179","PERIAPSIS":"348.142","CENTER_NAME":"EARTH","MEAN_MOTION_DOT":"-0.00097206","APOAPSIS":"350.891","ELEMENT_SET_NO":"999","MEAN_MOTION_DDOT":"0.0000000000000","RA_OF_ASC_NODE":"150.1064"},{"EPHEMERIS_TYPE":"0","OBJECT_ID":"2022-076AH","REF_FRAME":"TEME","TIME_SYSTEM":"UTC","DECAY_DATE":null,"BSTAR":"-0.00062591000000","MEAN_ANOMALY":"135.5958","SITE":"AFETR","NORAD_CAT_ID":"53017","TLE_LINE1":"1 53017U 22076AH  22234.91667824 -.00087768  00000-0 -62591-3 0  9993","LAUNCH_DATE":"2022-07-07","SEMIMAJOR_AXIS":"6727.737","ARG_OF_PERICENTER":"29.3527","CLASSIFICATION_TYPE":"U","TLE_LINE2":"2 53017  53.2173 150.1020 0001949  29.3527 135.5958 15.73255607  1300","MEAN_ELEMENT_THEORY":"SGP4","MEAN_MOTION_DDOT":"0.0000000000000","RA_OF_ASC_NODE":"150.1020","APOAPSIS":"350.913","ELEMENT_SET_NO":"999","MEAN_MOTION_DOT":"-0.00087768","FILE":"3544179","PERIAPSIS":"348.290","CENTER_NAME":"EARTH","MEAN_MOTION":"15.73255607","GP_ID":"210779833","OBJECT_TYPE":"PAYLOAD","REV_AT_EPOCH":"130","COUNTRY_CODE":"US","EPOCH":"2022-08-22T22:00:00.999936","INCLINATION":"53.2173","OBJECT_NAME":"STARLINK-4281","PERIOD":"91.530","RCS_SIZE":"LARGE","ECCENTRICITY":"0.00019490"},{"APOAPSIS":"350.848","ELEMENT_SET_NO":"999","MEAN_MOTION_DOT":"0.00001565","RA_OF_ASC_NODE":"150.1064","MEAN_MOTION_DDOT":"0.0000000000000","GP_ID":"210752505","OBJECT_TYPE":"PAYLOAD","MEAN_MOTION":"15.73228593","CENTER_NAME":"EARTH","PERIAPSIS":"348.509","FILE":"3544072","INCLINATION":"53.2157","EPOCH":"2022-08-22T22:00:00.999936","REV_AT_EPOCH":"779","COUNTRY_CODE":"US","RCS_SIZE":"LARGE","ECCENTRICITY":"0.00017380","PERIOD":"91.532","OBJECT_NAME":"STARLINK-4279","DECAY_DATE":null,"BSTAR":"0.00001555300000","MEAN_ANOMALY":"128.5587","TIME_SYSTEM":"UTC","OBJECT_ID":"2022-076AJ","REF_FRAME":"TEME","EPHEMERIS_TYPE":"0","ARG_OF_PERICENTER":"33.9565","TLE_LINE1":"1 53018U 22076AJ  22234.91667824  .00001565  00000-0  15553-4 0  9990","SEMIMAJOR_AXIS":"6727.814","LAUNCH_DATE":"2022-07-07","NORAD_CAT_ID":"53018","SITE":"AFETR","CLASSIFICATION_TYPE":"U","TLE_LINE2":"2 53018  53.2157 150.1064 0001738  33.9565 128.5587 15.73228593  7793","MEAN_ELEMENT_THEORY":"SGP4"},{"MEAN_MOTION":"15.73169018","GP_ID":"210753004","OBJECT_TYPE":"PAYLOAD","FILE":"3544072","PERIAPSIS":"348.256","CENTER_NAME":"EARTH","ELEMENT_SET_NO":"999","APOAPSIS":"351.441","MEAN_MOTION_DOT":"0.00003611","RA_OF_ASC_NODE":"150.1001","MEAN_MOTION_DDOT":"0.0000000000000","PERIOD":"91.535","RCS_SIZE":"LARGE","ECCENTRICITY":"0.00023670","OBJECT_NAME":"STARLINK-4282","EPOCH":"2022-08-22T22:00:00.999936","INCLINATION":"53.2174","REV_AT_EPOCH":"779","COUNTRY_CODE":"US","TLE_LINE1":"1 53019U 22076AK  22234.91667824  .00003611  00000-0  30180-4 0  9998","SEMIMAJOR_AXIS":"6727.984","LAUNCH_DATE":"2022-07-07","ARG_OF_PERICENTER":"18.0426","SITE":"AFETR","NORAD_CAT_ID":"53019","TIME_SYSTEM":"UTC","DECAY_DATE":null,"BSTAR":"0.00003018000000","MEAN_ANOMALY":"148.1167","EPHEMERIS_TYPE":"0","OBJECT_ID":"2022-076AK","REF_FRAME":"TEME","MEAN_ELEMENT_THEORY":"SGP4","CLASSIFICATION_TYPE":"U","TLE_LINE2":"2 53019  53.2174 150.1001 0002367  18.0426 148.1167 15.73169018  7791"},{"MEAN_ELEMENT_THEORY":"SGP4","TLE_LINE2":"2 53020  53.2174 150.1043 0001789  31.9996 131.6883 15.73212417  7796","CLASSIFICATION_TYPE":"U","ARG_OF_PERICENTER":"31.9996","TLE_LINE1":"1 53020U 22076AL  22234.91667824 -.00000281  00000-0  24198-5 0  9994","SEMIMAJOR_AXIS":"6727.860","LAUNCH_DATE":"2022-07-07","SITE":"AFETR","NORAD_CAT_ID":"53020","BSTAR":"0.00000241980000","DECAY_DATE":null,"MEAN_ANOMALY":"131.6883","TIME_SYSTEM":"UTC","OBJECT_ID":"2022-076AL","REF_FRAME":"TEME","EPHEMERIS_TYPE":"0","RCS_SIZE":"LARGE","ECCENTRICITY":"0.00017890","PERIOD":"91.532","OBJECT_NAME":"STARLINK-4287","INCLINATION":"53.2174","EPOCH":"2022-08-22T22:00:00.999936","REV_AT_EPOCH":"779","COUNTRY_CODE":"US","GP_ID":"210753013","OBJECT_TYPE":"PAYLOAD","MEAN_MOTION":"15.73212417","CENTER_NAME":"EARTH","PERIAPSIS":"348.521","FILE":"3544072","APOAPSIS":"350.928","ELEMENT_SET_NO":"999","MEAN_MOTION_DOT":"-0.00000281","RA_OF_ASC_NODE":"150.1043","MEAN_MOTION_DDOT":"0.0000000000000"},{"TIME_SYSTEM":"UTC","DECAY_DATE":null,"MEAN_ANOMALY":"143.9872","BSTAR":"0.00005823200000","EPHEMERIS_TYPE":"0","OBJECT_ID":"2022-076AM","REF_FRAME":"TEME","TLE_LINE1":"1 53021U 22076AM  22234.91667824  .00007567  00000-0  58232-4 0  9993","SEMIMAJOR_AXIS":"6727.825","LAUNCH_DATE":"2022-07-07","ARG_OF_PERICENTER":"23.2568","NORAD_CAT_ID":"53021","SITE":"AFETR","TLE_LINE2":"2 53021  53.2157 150.0965 0002519  23.2568 143.9872 15.73224607  7799","CLASSIFICATION_TYPE":"U","MEAN_ELEMENT_THEORY":"SGP4","APOAPSIS":"351.385","ELEMENT_SET_NO":"999","MEAN_MOTION_DOT":"0.00007567","RA_OF_ASC_NODE":"150.0965","MEAN_MOTION_DDOT":"0.0000000000000","MEAN_MOTION":"15.73224607","GP_ID":"210752521","OBJECT_TYPE":"PAYLOAD","FILE":"3544073","CENTER_NAME":"EARTH","PERIAPSIS":"347.995","EPOCH":"2022-08-22T22:00:00.999936","INCLINATION":"53.2157","REV_AT_EPOCH":"779","COUNTRY_CODE":"US","PERIOD":"91.532","RCS_SIZE":"LARGE","ECCENTRICITY":"0.00025190","OBJECT_NAME":"STARLINK-4203"},{"MEAN_ELEMENT_THEORY":"SGP4","TLE_LINE2":"2 53022  53.2174 150.1008 0002143  20.3826 145.0728 15.73209331  7796","CLASSIFICATION_TYPE":"U","SITE":"AFETR","NORAD_CAT_ID":"53022","TLE_LINE1":"1 53022U 22076AN  22234.91667824  .00000194  00000-0  58111-5 0  9990","SEMIMAJOR_AXIS":"6727.869","LAUNCH_DATE":"2022-07-07","ARG_OF_PERICENTER":"20.3826","EPHEMERIS_TYPE":"0","OBJECT_ID":"2022-076AN","REF_FRAME":"TEME","TIME_SYSTEM":"UTC","DECAY_DATE":null,"BSTAR":"0.00000581110000","MEAN_ANOMALY":"145.0728","OBJECT_NAME":"STARLINK-4216","PERIOD":"91.533","RCS_SIZE":"LARGE","ECCENTRICITY":"0.00021430","REV_AT_EPOCH":"779","COUNTRY_CODE":"US","EPOCH":"2022-08-22T22:00:00.999936","INCLINATION":"53.2174","FILE":"3544073","CENTER_NAME":"EARTH","PERIAPSIS":"348.292","MEAN_MOTION":"15.73209331","GP_ID":"210752514","OBJECT_TYPE":"PAYLOAD","MEAN_MOTION_DDOT":"0.0000000000000","RA_OF_ASC_NODE":"150.1008","ELEMENT_SET_NO":"999","APOAPSIS":"351.175","MEAN_MOTION_DOT":"0.00000194"},{"MEAN_MOTION_DOT":"0.00005842","ELEMENT_SET_NO":"999","APOAPSIS":"351.100","RA_OF_ASC_NODE":"150.0944","MEAN_MOTION_DDOT":"0.0000000000000","OBJECT_TYPE":"PAYLOAD","GP_ID":"210753020","MEAN_MOTION":"15.73221198","CENTER_NAME":"EARTH","PERIAPSIS":"348.299","FILE":"3544073","INCLINATION":"53.2157","EPOCH":"2022-08-22T22:00:00.999936","COUNTRY_CODE":"US","REV_AT_EPOCH":"779","ECCENTRICITY":"0.00020820","RCS_SIZE":"LARGE","PERIOD":"91.532","OBJECT_NAME":"STARLINK-4284","DECAY_DATE":null,"MEAN_ANOMALY":"135.8123","BSTAR":"0.00004598100000","TIME_SYSTEM":"UTC","REF_FRAME":"TEME","OBJECT_ID":"2022-076AP","EPHEMERIS_TYPE":"0","ARG_OF_PERICENTER":"32.6515","SEMIMAJOR_AXIS":"6727.835","LAUNCH_DATE":"2022-07-07","TLE_LINE1":"1 53023U 22076AP  22234.91667824  .00005842  00000-0  45981-4 0  9996","SITE":"AFETR","NORAD_CAT_ID":"53023","CLASSIFICATION_TYPE":"U","TLE_LINE2":"2 53023  53.2157 150.0944 0002082  32.6515 135.8123 15.73221198  7790","MEAN_ELEMENT_THEORY":"SGP4"}];
